CYGNUS NG-23            
1 65616U 25208A   26008.24201257  .00009406  00000+0  17753-3 0  9994
2 65616  51.6331  11.2620 0007619 354.1778   5.9120 15.49170014   228
DRAGONFLY               
1 65729U 98067XH  26008.22174368  .00389227  00000+0  15726-2 0  9991
2 65729  51.6233 359.0697 0008545  71.2127 288.9803 15.84698770 17340
1998-067XK              
1 65731U 98067XK  26008.23704036  .00149353  00000+0  10974-2 0  9990
2 65731  51.6289   2.2251 0005046  45.6266 314.5145 15.72103086 17308
RSP-03                  
1 65732U 98067XL  26008.23936225  .00224337  00000+0  12904-2 0  9999
2 65732  51.6258   0.7159 0006217  52.7245 307.4322 15.77501072 17335
GHS-01                  
1 65733U 98067XM  26007.34016378  .00508707  11219-3  14807-2 0  9997
2 65733  51.6249   2.1848 0009122  72.4376 287.7626 15.92234495 17234
YOTSUBA-KULOVER         
1 65941U 98067XN  26008.20938913  .00097036  00000+0  10096-2 0  9998
2 65941  51.6293   6.5476 0003877  72.8139 287.3280 15.63786992 13994
BOTAN                   
1 65942U 98067XP  26008.26486476  .00169323  00000+0  13611-2 0  9992
2 65942  51.6270   4.6605 0004651  66.4974 293.6511 15.69891545 14029
E-KAGAKU-1              
1 65943U 98067XQ  26008.01756149  .00076461  00000+0  79998-3 0  9994
2 65943  51.6303   7.5238 0002460  65.5030 294.6221 15.63751570 13968
HRC MONOBLOCK CAMERA    
1 66052U 98067XR  26008.25531919  .00040523  00000+0  57109-3 0  9998
2 66052  51.6312   9.1032 0001245 331.8906  28.2018 15.56205905 12963
HTV-X1                  
1 66174U 25241A   26008.24201257  .00009406  00000+0  17753-3 0  9991
2 66174  51.6331  11.2620 0007619 354.1778   5.9120 15.49170014   510
SZ-21 MODULE            
1 66515U 25246C   26007.86050997  .00025291  00000+0  26192-3 0  9992
2 66515  41.4742 216.5245 0001494  84.1343 275.9668 15.64106684  8533
SHENZHOU-22             
1 66645U 25272A   26008.22312505  .00012515  00000+0  15229-3 0  9996
2 66645  41.4651 215.7921 0011200 243.0655 116.9039 15.60275866267499
