CCSDS_OMM_VERS = 2.0
CREATION_DATE  = 
ORIGINATOR     = 

OBJECT_NAME    = CYGNUS NG-23
OBJECT_ID      = 2025-208A
CENTER_NAME    = EARTH
REF_FRAME      = TEME
TIME_SYSTEM    = UTC
MEAN_ELEMENT_THEORY = SGP/SGP4

EPOCH          = 2026-01-08T05:48:29.886048
MEAN_MOTION    = 15.49170014
ECCENTRICITY   = .00076194
INCLINATION    = 51.6331
RA_OF_ASC_NODE = 11.2620
ARG_OF_PERICENTER = 354.1778
MEAN_ANOMALY   = 5.9120

EPHEMERIS_TYPE = 0
CLASSIFICATION_TYPE = U
NORAD_CAT_ID   = 65616
ELEMENT_SET_NO = 999
REV_AT_EPOCH   = 22
BSTAR          = .17753341E-3
MEAN_MOTION_DOT = .9406E-4
MEAN_MOTION_DDOT = 0

CCSDS_OMM_VERS = 2.0
CREATION_DATE  = 
ORIGINATOR     = 

OBJECT_NAME    = DRAGONFLY
OBJECT_ID      = 1998-067XH
CENTER_NAME    = EARTH
REF_FRAME      = TEME
TIME_SYSTEM    = UTC
MEAN_ELEMENT_THEORY = SGP/SGP4

EPOCH          = 2026-01-08T05:19:18.653952
MEAN_MOTION    = 15.84698770
ECCENTRICITY   = .00085455
INCLINATION    = 51.6233
RA_OF_ASC_NODE = 359.0697
ARG_OF_PERICENTER = 71.2127
MEAN_ANOMALY   = 288.9803

EPHEMERIS_TYPE = 0
CLASSIFICATION_TYPE = U
NORAD_CAT_ID   = 65729
ELEMENT_SET_NO = 999
REV_AT_EPOCH   = 1734
BSTAR          = .15726141E-2
MEAN_MOTION_DOT = .389227E-2
MEAN_MOTION_DDOT = 0

CCSDS_OMM_VERS = 2.0
CREATION_DATE  = 
ORIGINATOR     = 

OBJECT_NAME    = 1998-067XK
OBJECT_ID      = 1998-067XK
CENTER_NAME    = EARTH
REF_FRAME      = TEME
TIME_SYSTEM    = UTC
MEAN_ELEMENT_THEORY = SGP/SGP4

EPOCH          = 2026-01-08T05:41:20.287104
MEAN_MOTION    = 15.72103086
ECCENTRICITY   = .00050469
INCLINATION    = 51.6289
RA_OF_ASC_NODE = 2.2251
ARG_OF_PERICENTER = 45.6266
MEAN_ANOMALY   = 314.5145

EPHEMERIS_TYPE = 0
CLASSIFICATION_TYPE = U
NORAD_CAT_ID   = 65731
ELEMENT_SET_NO = 999
REV_AT_EPOCH   = 1730
BSTAR          = .10974319E-2
MEAN_MOTION_DOT = .149353E-2
MEAN_MOTION_DDOT = 0

CCSDS_OMM_VERS = 2.0
CREATION_DATE  = 
ORIGINATOR     = 

OBJECT_NAME    = RSP-03
OBJECT_ID      = 1998-067XL
CENTER_NAME    = EARTH
REF_FRAME      = TEME
TIME_SYSTEM    = UTC
MEAN_ELEMENT_THEORY = SGP/SGP4

EPOCH          = 2026-01-08T05:44:40.898400
MEAN_MOTION    = 15.77501072
ECCENTRICITY   = .00062177
INCLINATION    = 51.6258
RA_OF_ASC_NODE = 0.7159
ARG_OF_PERICENTER = 52.7245
MEAN_ANOMALY   = 307.4322

EPHEMERIS_TYPE = 0
CLASSIFICATION_TYPE = U
NORAD_CAT_ID   = 65732
ELEMENT_SET_NO = 999
REV_AT_EPOCH   = 1733
BSTAR          = .12904408E-2
MEAN_MOTION_DOT = .224337E-2
MEAN_MOTION_DDOT = 0

CCSDS_OMM_VERS = 2.0
CREATION_DATE  = 
ORIGINATOR     = 

OBJECT_NAME    = GHS-01
OBJECT_ID      = 1998-067XM
CENTER_NAME    = EARTH
REF_FRAME      = TEME
TIME_SYSTEM    = UTC
MEAN_ELEMENT_THEORY = SGP/SGP4

EPOCH          = 2026-01-07T08:09:50.150592
MEAN_MOTION    = 15.92234495
ECCENTRICITY   = .00091221
INCLINATION    = 51.6249
RA_OF_ASC_NODE = 2.1848
ARG_OF_PERICENTER = 72.4376
MEAN_ANOMALY   = 287.7626

EPHEMERIS_TYPE = 0
CLASSIFICATION_TYPE = U
NORAD_CAT_ID   = 65733
ELEMENT_SET_NO = 999
REV_AT_EPOCH   = 1723
BSTAR          = .1480688E-2
MEAN_MOTION_DOT = .508707E-2
MEAN_MOTION_DDOT = .11218926E-3

CCSDS_OMM_VERS = 2.0
CREATION_DATE  = 
ORIGINATOR     = 

OBJECT_NAME    = YOTSUBA-KULOVER
OBJECT_ID      = 1998-067XN
CENTER_NAME    = EARTH
REF_FRAME      = TEME
TIME_SYSTEM    = UTC
MEAN_ELEMENT_THEORY = SGP/SGP4

EPOCH          = 2026-01-08T05:01:31.220832
MEAN_MOTION    = 15.63786992
ECCENTRICITY   = .00038778
INCLINATION    = 51.6293
RA_OF_ASC_NODE = 6.5476
ARG_OF_PERICENTER = 72.8139
MEAN_ANOMALY   = 287.3280

EPHEMERIS_TYPE = 0
CLASSIFICATION_TYPE = U
NORAD_CAT_ID   = 65941
ELEMENT_SET_NO = 999
REV_AT_EPOCH   = 1399
BSTAR          = .10095789E-2
MEAN_MOTION_DOT = .97036E-3
MEAN_MOTION_DDOT = 0

CCSDS_OMM_VERS = 2.0
CREATION_DATE  = 
ORIGINATOR     = 

OBJECT_NAME    = BOTAN
OBJECT_ID      = 1998-067XP
CENTER_NAME    = EARTH
REF_FRAME      = TEME
TIME_SYSTEM    = UTC
MEAN_ELEMENT_THEORY = SGP/SGP4

EPOCH          = 2026-01-08T06:21:24.315264
MEAN_MOTION    = 15.69891545
ECCENTRICITY   = .00046514
INCLINATION    = 51.6270
RA_OF_ASC_NODE = 4.6605
ARG_OF_PERICENTER = 66.4974
MEAN_ANOMALY   = 293.6511

EPHEMERIS_TYPE = 0
CLASSIFICATION_TYPE = U
NORAD_CAT_ID   = 65942
ELEMENT_SET_NO = 999
REV_AT_EPOCH   = 1402
BSTAR          = .13611441E-2
MEAN_MOTION_DOT = .169323E-2
MEAN_MOTION_DDOT = 0

CCSDS_OMM_VERS = 2.0
CREATION_DATE  = 
ORIGINATOR     = 

OBJECT_NAME    = E-KAGAKU-1
OBJECT_ID      = 1998-067XQ
CENTER_NAME    = EARTH
REF_FRAME      = TEME
TIME_SYSTEM    = UTC
MEAN_ELEMENT_THEORY = SGP/SGP4

EPOCH          = 2026-01-08T00:25:17.312736
MEAN_MOTION    = 15.63751570
ECCENTRICITY   = .00024606
INCLINATION    = 51.6303
RA_OF_ASC_NODE = 7.5238
ARG_OF_PERICENTER = 65.5030
MEAN_ANOMALY   = 294.6221

EPHEMERIS_TYPE = 0
CLASSIFICATION_TYPE = U
NORAD_CAT_ID   = 65943
ELEMENT_SET_NO = 999
REV_AT_EPOCH   = 1396
BSTAR          = .7999789E-3
MEAN_MOTION_DOT = .76461E-3
MEAN_MOTION_DDOT = 0

CCSDS_OMM_VERS = 2.0
CREATION_DATE  = 
ORIGINATOR     = 

OBJECT_NAME    = HRC MONOBLOCK CAMERA
OBJECT_ID      = 1998-067XR
CENTER_NAME    = EARTH
REF_FRAME      = TEME
TIME_SYSTEM    = UTC
MEAN_ELEMENT_THEORY = SGP/SGP4

EPOCH          = 2026-01-08T06:07:39.578016
MEAN_MOTION    = 15.56205905
ECCENTRICITY   = .00012457
INCLINATION    = 51.6312
RA_OF_ASC_NODE = 9.1032
ARG_OF_PERICENTER = 331.8906
MEAN_ANOMALY   = 28.2018

EPHEMERIS_TYPE = 0
CLASSIFICATION_TYPE = U
NORAD_CAT_ID   = 66052
ELEMENT_SET_NO = 999
REV_AT_EPOCH   = 1296
BSTAR          = .5710898E-3
MEAN_MOTION_DOT = .40523E-3
MEAN_MOTION_DDOT = 0

CCSDS_OMM_VERS = 2.0
CREATION_DATE  = 
ORIGINATOR     = 

OBJECT_NAME    = HTV-X1
OBJECT_ID      = 2025-241A
CENTER_NAME    = EARTH
REF_FRAME      = TEME
TIME_SYSTEM    = UTC
MEAN_ELEMENT_THEORY = SGP/SGP4

EPOCH          = 2026-01-08T05:48:29.886048
MEAN_MOTION    = 15.49170014
ECCENTRICITY   = .00076194
INCLINATION    = 51.6331
RA_OF_ASC_NODE = 11.2620
ARG_OF_PERICENTER = 354.1778
MEAN_ANOMALY   = 5.9120

EPHEMERIS_TYPE = 0
CLASSIFICATION_TYPE = U
NORAD_CAT_ID   = 66174
ELEMENT_SET_NO = 999
REV_AT_EPOCH   = 51
BSTAR          = .17753341E-3
MEAN_MOTION_DOT = .9406E-4
MEAN_MOTION_DDOT = 0

CCSDS_OMM_VERS = 2.0
CREATION_DATE  = 
ORIGINATOR     = 

OBJECT_NAME    = SZ-21 MODULE
OBJECT_ID      = 2025-246C
CENTER_NAME    = EARTH
REF_FRAME      = TEME
TIME_SYSTEM    = UTC
MEAN_ELEMENT_THEORY = SGP/SGP4

EPOCH          = 2026-01-07T20:39:08.061408
MEAN_MOTION    = 15.64106684
ECCENTRICITY   = .00014946
INCLINATION    = 41.4742
RA_OF_ASC_NODE = 216.5245
ARG_OF_PERICENTER = 84.1343
MEAN_ANOMALY   = 275.9668

EPHEMERIS_TYPE = 0
CLASSIFICATION_TYPE = U
NORAD_CAT_ID   = 66515
ELEMENT_SET_NO = 999
REV_AT_EPOCH   = 853
BSTAR          = .26191796E-3
MEAN_MOTION_DOT = .25291E-3
MEAN_MOTION_DDOT = 0

CCSDS_OMM_VERS = 2.0
CREATION_DATE  = 
ORIGINATOR     = 

OBJECT_NAME    = SHENZHOU-22
OBJECT_ID      = 2025-272A
CENTER_NAME    = EARTH
REF_FRAME      = TEME
TIME_SYSTEM    = UTC
MEAN_ELEMENT_THEORY = SGP/SGP4

EPOCH          = 2026-01-08T05:21:18.004320
MEAN_MOTION    = 15.60275866
ECCENTRICITY   = .00112
INCLINATION    = 41.4651
RA_OF_ASC_NODE = 215.7921
ARG_OF_PERICENTER = 243.0655
MEAN_ANOMALY   = 116.9039

EPHEMERIS_TYPE = 0
CLASSIFICATION_TYPE = U
NORAD_CAT_ID   = 66645
ELEMENT_SET_NO = 999
REV_AT_EPOCH   = 26749
BSTAR          = .15228564E-3
MEAN_MOTION_DOT = .12515E-3
MEAN_MOTION_DDOT = 0

